API VERSION: 1.0
API SOURCE: NASA/JPL Horizons API

*******************************************************************************
JPL/HORIZONS                     (1998 KY26)               2024-Jun-26 09:04:47
Rec #:50001030 (+COV) Soln.date: 2024-May-07_09:53:57     # obs: 85 (1998-2024)
 
IAU76/J2000 helio. ecliptic osc. elements (au, days, deg., period=Julian yrs):
 
  EPOCH=  2457098.5 ! 2015-Mar-17.00 (TDB)         Residual RMS= .16138
   EC= .2019000255617675   QR= .9839116983883814   TP= 2457001.1098937606
   OM= 84.36476814210003   W=  209.3720399057174   IN= 1.480529890635544
   A= 1.232817604186667    MA= 70.12464448550334   ADIST= 1.481723509984952
   PER= 1.36885            N= .72003869            ANGMOM= .018706549
   DAN= 1.43506            DDN= 1.00563            L= 293.7286318
   B= -.7261068000000001   MOID= .00276111         TP= 2014-Dec-09.6098937606
 
Asteroid physical parameters (km, seconds, rotational period in hours):
   GM= n.a.                RAD= .015               ROTPER= .1784
   H= 25.72                G= .150                 B-V= n.a.
                           ALBEDO= n.a.            STYP= n.a.

Asteroid non-gravitational force model (AMRAT= m^2/kg;A1,A2,A3=au/d^2;R0=au):
   AMRAT=  0.
   A1= 3.65539547056E-11   A2= -2.196384230047E-13 A3= 1.686333707767E-12
 Non-standard or simulated/proxy model:
   ALN=  1.            NK=  0.       NM=  2.       NN=  0.       R0=  1.

ASTEROID comments: 
1: soln ref.= JPL#36, OCC=2           radar( 2 delay, 2 Dop.)
2: source=ORB
*******************************************************************************


*******************************************************************************
Ephemeris / WWW_USER Wed Jun 26 09:04:48 2024 Pasadena, USA      / Horizons    
*******************************************************************************
Target body name: (1998 KY26)                     {source: JPL#36}
Center body name: Earth (399)                     {source: DE441}
Center-site name: GEOCENTRIC
*******************************************************************************
Start time      : A.D. 2024-Jan-01 00:00:00.0000 UT      
Stop  time      : A.D. 2044-Jan-01 00:00:00.0000 UT      
Step-size       : 1440 minutes
*******************************************************************************
Target pole/equ : undefined
Target radii    : 0.015 km                                                     
Center geodetic : 0.0, 0.0, -6378.137             {E-lon(deg),Lat(deg),Alt(km)}
Center cylindric: 0.0, 0.0, 0.0                   {E-lon(deg),Dxy(km),Dz(km)}
Center pole/equ : ITRF93                          {East-longitude positive}
Center radii    : 6378.137, 6378.137, 6356.752 km {Equator_a, b, pole_c}       
Target primary  : Sun
Vis. interferer : MOON (R_eq= 1737.400) km        {source: DE441}
Rel. light bend : Sun                             {source: DE441}
Rel. lght bnd GM: 1.3271E+11 km^3/s^2                                          
Small-body perts: Yes                             {source: SB441-N16}
Atmos refraction: NO (AIRLESS)
RA format       : HMS
Time format     : CAL 
Calendar mode   : Mixed Julian/Gregorian
EOP file        : eop.240624.p240917                                           
EOP coverage    : DATA-BASED 1962-JAN-20 TO 2024-JUN-24. PREDICTS-> 2024-SEP-16
Units conversion: 1 au= 149597870.700 km, c= 299792.458 km/s, 1 day= 86400.0 s 
Table cut-offs 1: Elevation (-90.0deg=NO ),Airmass (>38.000=NO), Daylight (NO )
Table cut-offs 2: Solar elongation (  0.0,180.0=NO ),Local Hour Angle( 0.0=NO )
Table cut-offs 3: RA/DEC angular rate (     0.0=NO )                           
*******************************************************************************
Initial IAU76/J2000 heliocentric ecliptic osculating elements (au, days, deg.):
  EPOCH=  2457098.5 ! 2015-Mar-17.00 (TDB)         Residual RMS= .16138        
   EC= .2019000255617675   QR= .9839116983883814   TP= 2457001.1098937606      
   OM= 84.36476814210003   W=  209.3720399057174   IN= 1.480529890635544       
  Equivalent ICRF heliocentric cartesian coordinates (au, au/d):
   X= 1.065580543565099E+00  Y= 5.087046238985540E-01  Z= 1.921801621449008E-01
  VX=-4.256297140495577E-03 VY= 1.405160504675711E-02 VZ= 6.253982128368607E-03
Asteroid physical parameters (km, seconds, rotational period in hours):        
   GM= n.a.                RAD= .015               ROTPER= .1784               
   H= 25.72                G= .150                 B-V= n.a.                   
                           ALBEDO= n.a.            STYP= n.a.                  
Asteroid non-gravitational force model (AMRAT= m^2/kg;A1,A2,A3=au/d^2;R0=au):  
   AMRAT=  0.                                                                  
   A1= 3.65539547056E-11   A2= -2.196384230047E-13 A3= 1.686333707767E-12      
 Non-standard or simulated/proxy model:                                        
   ALN=  1.            NK=  0.       NM=  2.       NN=  0.       R0=  1.       
**********************************************************************************************************************************************
 Date__(UT)__HR:MN     R.A._____(ICRF)_____DEC  dRA*cosD d(DEC)/dt    APmag   S-brt             delta      deldot     S-O-T /r     S-T-O  Cnst
**********************************************************************************************************************************************
$$SOE
 2039-Aug-22 00:00     03 54 41.79 +14 47 43.3  68.48138  12.59953   25.725   5.764  0.28435714008957   1.6136751   88.5789 /L   75.6218   Tau
 2039-Aug-23 00:00     03 56 34.04 +14 52 46.4  67.23382  12.19951   25.719   5.759  0.28526144113204   1.5182174   89.0784 /L   75.1057   Tau
 2039-Aug-24 00:00     03 58 24.25 +14 57 39.9  65.96891  11.80526   25.713   5.754  0.28611071184008   1.4230932   89.5868 /L   74.5855   Tau
 2039-Aug-25 00:00     04 00 12.40 +15 02 23.9  64.68752  11.41731   25.707   5.750  0.28690514808598   1.3283081   90.1043 /L   74.0611   Tau
 2039-Aug-26 00:00     04 01 58.45 +15 06 58.6  63.39015  11.03603   25.700   5.745  0.28764493939893   1.2338354   90.6311 /L   73.5325   Tau
 2039-Aug-27 00:00     04 03 42.38 +15 11 24.2  62.07678  10.66156   25.693   5.740  0.28833025189462   1.1396220   91.1672 /L   72.9996   Tau
 2039-Aug-28 00:00     04 05 24.15 +15 15 40.7  60.74677  10.29383   25.685   5.735  0.28896121566043   1.0455980   91.7126 /L   72.4623   Tau
 2039-Aug-29 00:00     04 07 03.74 +15 19 48.5  59.39872  9.932556   25.677   5.730  0.28953791806192   0.9516875   92.2676 /L   71.9206   Tau
 2039-Aug-30 00:00     04 08 41.11 +15 23 47.5  58.03046  9.577209   25.668   5.725  0.29006040445614   0.8578233   92.8322 /L   71.3742   Tau
 2039-Aug-31 00:00     04 10 16.23 +15 27 38.0  56.63906  9.227110   25.659   5.720  0.29052868763835   0.7639627   93.4067 /L   70.8232   Tau
 2039-Sep-01 00:00     04 11 49.04 +15 31 20.0  55.22099  8.881467   25.650   5.715  0.29094276651004   0.6701026   93.9911 /L   70.2674   Tau
 2039-Sep-02 00:00     04 13 19.50 +15 34 53.7  53.77232  8.539476   25.640   5.710  0.29130265275486   0.5762918   94.5856 /L   69.7066   Tau
 2039-Sep-03 00:00     04 14 47.55 +15 38 19.1  52.28906  8.200405   25.630   5.705  0.29160840221510   0.4826345   95.1906 /L   69.1406   Tau
 2039-Sep-04 00:00     04 16 13.14 +15 41 36.3  50.76744  7.863678   25.619   5.700  0.29186014620249   0.3892863   95.8063 /L   68.5691   Tau
 2039-Sep-05 00:00     04 17 36.18 +15 44 45.3  49.20415  7.528907   25.608   5.695  0.29205811805985   0.2964426   96.4330 /L   67.9920   Tau
 2039-Sep-06 00:00     04 18 56.61 +15 47 46.2  47.59643  7.195898   25.597   5.690  0.29220267197001   0.2043242   97.0709 /L   67.4089   Tau
 2039-Sep-07 00:00     04 20 14.35 +15 50 38.9  45.94205  6.864613   25.585   5.684  0.29229429343860   0.1131631   97.7204 /L   66.8195   Tau
 2039-Sep-08 00:00     04 21 29.32 +15 53 23.6  44.23925  6.535132   25.572   5.679  0.29233360294740   0.0231935   98.3818 /L   66.2236   Tau
 2039-Sep-09 00:00     04 22 41.43 +15 56 00.3  42.48661  6.207602   25.559   5.673  0.29232135533663  -0.0653539   99.0554 /L   65.6207   Tau
 2039-Sep-10 00:00     04 23 50.61 +15 58 29.0  40.68292  5.882205   25.546   5.668  0.29225843752494  -0.1522524   99.7416 /L   65.0106   Tau
 2039-Sep-11 00:00     04 24 56.75 +16 00 49.8  38.82715  5.559132   25.532   5.662  0.29214586660580  -0.2372773  100.4408 /L   64.3930   Tau
 2039-Sep-12 00:00     04 25 59.77 +16 03 02.7  36.91840  5.238579   25.518   5.656  0.29198478956471  -0.3202028  101.1532 /L   63.7674   Tau
 2039-Sep-13 00:00     04 26 59.58 +16 05 07.7  34.95591  4.920753   25.503   5.650  0.29177648507819  -0.4007981  101.8792 /L   63.1335   Tau
 2039-Sep-14 00:00     04 27 56.10 +16 07 05.1  32.93913  4.605881   25.487   5.644  0.29152236713716  -0.4788250  102.6192 /L   62.4910   Tau
 2039-Sep-15 00:00     04 28 49.21 +16 08 54.7  30.86781  4.294235   25.471   5.638  0.29122398954417  -0.5540378  103.3735 /L   61.8394   Tau
 2039-Sep-16 00:00     04 29 38.85 +16 10 36.7  28.74214  3.986150   25.455   5.632  0.29088304964475  -0.6261860  104.1425 /L   61.1785   Tau
 2039-Sep-17 00:00     04 30 24.90 +16 12 11.1  26.56286  3.682032   25.438   5.625  0.29050138905764  -0.6950220  104.9265 /L   60.5078   Tau
 2039-Sep-18 00:00     04 31 07.29 +16 13 38.1  24.33129  3.382350   25.421   5.618  0.29008098892218  -0.7603123  105.7258 /L   59.8269   Tau
 2039-Sep-19 00:00     04 31 45.92 +16 14 57.8  22.04937  3.087606   25.403   5.611  0.28962395766350  -0.8218520  106.5408 /L   59.1356   Tau
 2039-Sep-20 00:00     04 32 20.72 +16 16 10.3  19.71942  2.798268   25.384   5.604  0.28913251075341  -0.8794773  107.3718 /L   58.4335   Tau
 2039-Sep-21 00:00     04 32 51.60 +16 17 15.7  17.34394  2.514693   25.365   5.597  0.28860894422967  -0.9330736  108.2191 /L   57.7203   Tau
 2039-Sep-22 00:00     04 33 18.48 +16 18 14.1  14.92529  2.237053   25.346   5.589  0.28805560601501  -0.9825748  109.0829 /L   56.9955   Tau
 2039-Sep-23 00:00     04 33 41.31 +16 19 05.8  12.46535  1.965277   25.326   5.581  0.28747487023436  -1.0279541  109.9635 /L   56.2591   Tau
 2039-Sep-24 00:00     04 34 00.00 +16 19 50.7  9.965342  1.699031   25.306   5.573  0.28686911911525  -1.0692073  110.8611 /L   55.5106   Tau
